[{"OBJECT_NAME":"STARLINK-30136","OBJECT_ID":"2023-079X","EPOCH":"2026-03-09T12:00:01.999296","MEAN_MOTION":15.18906072,"ECCENTRICITY":0.000211,"INCLINATION":43.0009,"RA_OF_ASC_NODE":107.7538,"ARG_OF_PERICENTER":272.4679,"MEAN_ANOMALY":39.2148,"EPHEMERIS_TYPE":0,"CLASSIFICATION_TYPE":"U","NORAD_CAT_ID":56844,"ELEMENT_SET_NO":999,"REV_AT_EPOCH":576,"BSTAR":0.0056579,"MEAN_MOTION_DOT":0.00122112,"MEAN_MOTION_DDOT":0},{"OBJECT_NAME":"CONNECTA IOT-10","OBJECT_ID":"2025-135AD","EPOCH":"2026-03-09T07:35:31.513344","MEAN_MOTION":15.2050793,"ECCENTRICITY":6.9e-5,"INCLINATION":97.4557,"RA_OF_ASC_NODE":184.3751,"ARG_OF_PERICENTER":59.0746,"MEAN_ANOMALY":301.0557,"EPHEMERIS_TYPE":0,"CLASSIFICATION_TYPE":"U","NORAD_CAT_ID":64555,"ELEMENT_SET_NO":999,"REV_AT_EPOCH":3968,"BSTAR":0.00024786,"MEAN_MOTION_DOT":5.349e-5,"MEAN_MOTION_DDOT":0}]
